STARLINK-1540
1 26051C 20055AA  21325.15400442  .00000329  00000-0  22048-4 0  3258
2 26051  53.0533 322.5451 0001946  52.9710  68.9449 15.06386330    19
